[{"OBJECT_NAME":"JILIN-1 GAOFEN 03D47","OBJECT_ID":"2022-167L","EPOCH":"2026-03-09T22:56:46.924224","MEAN_MOTION":15.31686941,"ECCENTRICITY":0.00089304,"INCLINATION":97.6835,"RA_OF_ASC_NODE":234.6581,"ARG_OF_PERICENTER":110.4031,"MEAN_ANOMALY":249.8169,"EPHEMERIS_TYPE":0,"CLASSIFICATION_TYPE":"U","NORAD_CAT_ID":54692,"ELEMENT_SET_NO":999,"REV_AT_EPOCH":18014,"BSTAR":0.00047294748,"MEAN_MOTION_DOT":0.00014417,"MEAN_MOTION_DDOT":0},{"OBJECT_NAME":"STARLINK-35653","OBJECT_ID":"2025-237J","EPOCH":"2026-03-09T21:53:09.425760","MEAN_MOTION":15.30204154,"ECCENTRICITY":0.00012084,"INCLINATION":53.1613,"RA_OF_ASC_NODE":38.6603,"ARG_OF_PERICENTER":77.8994,"MEAN_ANOMALY":282.2143,"EPHEMERIS_TYPE":0,"CLASSIFICATION_TYPE":"U","NORAD_CAT_ID":66122,"ELEMENT_SET_NO":999,"REV_AT_EPOCH":2264,"BSTAR":0.0013920206,"MEAN_MOTION_DOT":0.00041102,"MEAN_MOTION_DDOT":0}]
